EUTELSAT 9B             
1 41310U 16005A   26074.27961642  .00000061  00000+0  00000+0 0  9992
2 41310   0.0488  69.6718 0004131 263.2302 309.6233  1.00273047 37173
EUTELSAT 65 WEST A      
1 41382U 16014A   26074.26868470 -.00000277  00000+0  00000+0 0  9995
2 41382   0.0611  19.8078 0002195 332.9199 211.6638  1.00273602 36595
EUTELSAT 117 WEST B     
1 41589U 16038B   26073.30322345 -.00000012  00000+0  00000+0 0  9997
2 41589   0.0416   6.7202 0000259 285.2785 232.0791  1.00272184 35715
EUTELSAT 172B           
1 42741U 17029B   26073.88778310 -.00000007  00000+0  00000+0 0  9993
2 42741   0.0193 155.5552 0000191 322.4499 186.0796  1.00272020 32797
EUTELSAT 7C             
1 44334U 19034B   26073.36016957  .00000047  00000+0  00000+0 0  9999
2 44334   0.0713 177.5871 0003266 166.6147 324.3914  1.00272124  5881
EUTELSAT 5 WEST B       
1 44624U 19067A   26074.20931779 -.00000043  00000+0  00000+0 0  9996
2 44624   0.0783 324.8861 0003182  40.3280 237.9446  1.00271700 23494
EUTELSAT KONNECT        
1 45027U 20005B   26073.35600394  .00000049  00000+0  00000+0 0  9994
2 45027   0.0668  97.4929 0001046 221.3319 348.5168  1.00272524 23386
EUTELSAT QUANTUM        
1 49056U 21069B   26074.21971784  .00000125  00000+0  00000+0 0  9996
2 49056   0.0235 274.6879 0002581  79.9969 304.9318  1.00272488 16988
EUTELSAT KONNECT VHTS   
1 53765U 22110A   26074.21079112  .00000016  00000+0  00000+0 0  9999
2 53765   0.0579 104.1049 0002831 226.3647 280.9193  1.00269379  5893
EUTELSAT HOTBIRD 13F    
1 54048U 22134A   26074.27961642  .00000086  00000+0  00000+0 0  9991
2 54048   0.0604 291.4865 0002019  74.0949 280.9548  1.00271779 12433
EUTELSAT HOTBIRD 13G    
1 54225U 22146A   26074.27961642  .00000086  00000+0  00000+0 0  9991
2 54225   0.0479 233.2617 0001992 302.2114 111.0527  1.00270845  6525
EUTELSAT 10B            
1 54259U 22157A   26074.27961642  .00000067  00000+0  00000+0 0  9999
2 54259   0.0578 101.8720 0002150   5.8620 175.7922  1.00270181 12089
EUTELSAT 36D            
1 59346U 24059A   26074.21737782  .00000155  00000+0  00000+0 0  9992
2 59346   0.0031 150.2408 0000263 322.6650 174.0125  1.00271977  7201
